{
  "type": "FeatureCollection",
  "features": [
    {
      "type": "Feature",
      "properties": {
        "norad_id": 31303,
        "name": "FENGYUN 1C DEB",
        "group": "fengyun-1c-debris",
        "lat": 19.458981270034506,
        "lon": -9.317707090605206,
        "alt_km": 863.4432952068664,
        "timestamp": "2025-12-03T06:58:43.519623+00:00",
        "meta_object_name": "FENGYUN 1C DEB",
        "meta_object_id": "1999-025BPM",
        "meta_epoch": "2025-12-02T12:09:54.433728",
        "meta_mean_motion": 14.11018119,
        "meta_eccentricity": 0.00111314,
        "meta_inclination": 98.7054,
        "meta_ra_of_asc_node": 353.0257,
        "meta_arg_of_pericenter": 180.3273,
        "meta_mean_anomaly": 179.7893,
        "meta_ephemeris_type": 0,
        "meta_classification_type": "U",
        "meta_norad_cat_id": 31303,
        "meta_element_set_no": 999,
        "meta_rev_at_epoch": 96174,
        "meta_bstar": 0.0001381481,
        "meta_mean_motion_dot": 2.06e-06,
        "meta_mean_motion_ddot": 0,
        "tle_line1": "1 31303U 99025BPM 25336.50688002  .00000206  00000+0  13815-3 0  9991",
        "tle_line2": "2 31303  98.7054 353.0257 0011131 180.3273 179.7893 14.11018119961749"
      },
      "geometry": {
        "type": "Point",
        "coordinates": [
          -9.317707090605206,
          19.458981270034506
        ]
      }
    },
    {
      "type": "Feature",
      "properties": {
        "norad_id": 31311,
        "name": "FENGYUN 1C DEB",
        "group": "fengyun-1c-debris",
        "lat": 14.64792724891708,
        "lon": -119.18118385973781,
        "alt_km": 785.0812582483532,
        "timestamp": "2025-12-03T06:58:43.519634+00:00",
        "meta_object_name": "FENGYUN 1C DEB",
        "meta_object_id": "1999-025BPP",
        "meta_epoch": "2025-12-02T19:01:10.536384",
        "meta_mean_motion": 14.29599124,
        "meta_eccentricity": 0.0019568,
        "meta_inclination": 98.8539,
        "meta_ra_of_asc_node": 57.9776,
        "meta_arg_of_pericenter": 115.2787,
        "meta_mean_anomaly": 6.5318,
        "meta_ephemeris_type": 0,
        "meta_classification_type": "U",
        "meta_norad_cat_id": 31311,
        "meta_element_set_no": 999,
        "meta_rev_at_epoch": 96079,
        "meta_bstar": 0.0023666,
        "meta_mean_motion_dot": 6.029e-05,
        "meta_mean_motion_ddot": 0,
        "tle_line1": "1 31311U 99025BPP 25336.79248306  .00006029  00000+0  23666-2 0  9993",
        "tle_line2": "2 31311  98.8539  57.9776 0019568 115.2787   6.5318 14.29599124960794"
      },
      "geometry": {
        "type": "Point",
        "coordinates": [
          -119.18118385973781,
          14.64792724891708
        ]
      }
    },
    {
      "type": "Feature",
      "properties": {
        "norad_id": 31312,
        "name": "FENGYUN 1C DEB",
        "group": "fengyun-1c-debris",
        "lat": -45.03668238452775,
        "lon": 134.26249361887463,
        "alt_km": 863.622871636615,
        "timestamp": "2025-12-03T06:58:43.519644+00:00",
        "meta_object_name": "FENGYUN 1C DEB",
        "meta_object_id": "1999-025BPQ",
        "meta_epoch": "2025-12-01T11:40:09.596352",
        "meta_mean_motion": 14.00893121,
        "meta_eccentricity": 0.00581856,
        "meta_inclination": 98.8574,
        "meta_ra_of_asc_node": 321.4953,
        "meta_arg_of_pericenter": 267.9693,
        "meta_mean_anomaly": 222.3029,
        "meta_ephemeris_type": 0,
        "meta_classification_type": "U",
        "meta_norad_cat_id": 31312,
        "meta_element_set_no": 999,
        "meta_rev_at_epoch": 94988,
        "meta_bstar": 0.00061208287,
        "meta_mean_motion_dot": 8.85e-06,
        "meta_mean_motion_ddot": 0,
        "tle_line1": "1 31312U 99025BPQ 25335.48622218  .00000885  00000+0  61208-3 0  9996",
        "tle_line2": "2 31312  98.8574 321.4953 0058185 267.9693 222.3029 14.00893121949886"
      },
      "geometry": {
        "type": "Point",
        "coordinates": [
          134.26249361887463,
          -45.03668238452775
        ]
      }
    },
    {
      "type": "Feature",
      "properties": {
        "norad_id": 31313,
        "name": "FENGYUN 1C DEB",
        "group": "fengyun-1c-debris",
        "lat": -80.1598770120309,
        "lon": -5.270686368661791,
        "alt_km": 807.8088330433848,
        "timestamp": "2025-12-03T06:58:43.519654+00:00",
        "meta_object_name": "FENGYUN 1C DEB",
        "meta_object_id": "1999-025BPR",
        "meta_epoch": "2025-12-02T04:24:22.188960",
        "meta_mean_motion": 14.22250759,
        "meta_eccentricity": 0.0044213,
        "meta_inclination": 99.0143,
        "meta_ra_of_asc_node": 239.8311,
        "meta_arg_of_pericenter": 211.828,
        "meta_mean_anomaly": 148.0223,
        "meta_ephemeris_type": 0,
        "meta_classification_type": "U",
        "meta_norad_cat_id": 31313,
        "meta_element_set_no": 999,
        "meta_rev_at_epoch": 96912,
        "meta_bstar": 0.0004052,
        "meta_mean_motion_dot": 8.62e-06,
        "meta_mean_motion_ddot": 0,
        "tle_line1": "1 31313U 99025BPR 25336.18359015  .00000862  00000+0  40520-3 0  9996",
        "tle_line2": "2 31313  99.0143 239.8311 0044213 211.8280 148.0223 14.22250759969126"
      },
      "geometry": {
        "type": "Point",
        "coordinates": [
          -5.270686368661791,
          -80.1598770120309
        ]
      }
    },
    {
      "type": "Feature",
      "properties": {
        "norad_id": 31314,
        "name": "FENGYUN 1C DEB",
        "group": "fengyun-1c-debris",
        "lat": -4.793203797350464,
        "lon": 150.8176593719101,
        "alt_km": 934.6796621817239,
        "timestamp": "2025-12-03T06:58:43.519664+00:00",
        "meta_object_name": "FENGYUN 1C DEB",
        "meta_object_id": "1999-025BPS",
        "meta_epoch": "2025-11-29T06:23:17.726496",
        "meta_mean_motion": 14.04902507,
        "meta_eccentricity": 0.00792454,
        "meta_inclination": 98.8217,
        "meta_ra_of_asc_node": 327.6511,
        "meta_arg_of_pericenter": 34.949,
        "meta_mean_anomaly": 325.6844,
        "meta_ephemeris_type": 0,
        "meta_classification_type": "U",
        "meta_norad_cat_id": 31314,
        "meta_element_set_no": 999,
        "meta_rev_at_epoch": 60625,
        "meta_bstar": 0.00041647017,
        "meta_mean_motion_dot": 6.46e-06,
        "meta_mean_motion_ddot": 0,
        "tle_line1": "1 31314U 99025BPS 25333.26617739  .00000646  00000+0  41647-3 0  9994",
        "tle_line2": "2 31314  98.8217 327.6511 0079245  34.9490 325.6844 14.04902507606253"
      },
      "geometry": {
        "type": "Point",
        "coordinates": [
          150.8176593719101,
          -4.793203797350464
        ]
      }
    },
    {
      "type": "Feature",
      "properties": {
        "norad_id": 31319,
        "name": "FENGYUN 1C DEB",
        "group": "fengyun-1c-debris",
        "lat": -44.079657236481275,
        "lon": -114.55486743041095,
        "alt_km": 1100.1850498573094,
        "timestamp": "2025-12-03T06:58:43.519674+00:00",
        "meta_object_name": "FENGYUN 1C DEB",
        "meta_object_id": "1999-025BPX",
        "meta_epoch": "2025-12-01T13:52:46.372800",
        "meta_mean_motion": 13.7582212,
        "meta_eccentricity": 0.01704858,
        "meta_inclination": 98.8307,
        "meta_ra_of_asc_node": 235.1992,
        "meta_arg_of_pericenter": 116.5538,
        "meta_mean_anomaly": 2.353,
        "meta_ephemeris_type": 0,
        "meta_classification_type": "U",
        "meta_norad_cat_id": 31319,
        "meta_element_set_no": 999,
        "meta_rev_at_epoch": 93534,
        "meta_bstar": 0.00018484485,
        "meta_mean_motion_dot": 1.61e-06,
        "meta_mean_motion_ddot": 0,
        "tle_line1": "1 31319U 99025BPX 25335.57831450  .00000161  00000+0  18484-3 0  9998",
        "tle_line2": "2 31319  98.8307 235.1992 0170485 116.5538   2.3530 13.75822120935347"
      },
      "geometry": {
        "type": "Point",
        "coordinates": [
          -114.55486743041095,
          -44.079657236481275
        ]
      }
    },
    {
      "type": "Feature",
      "properties": {
        "norad_id": 31321,
        "name": "FENGYUN 1C DEB",
        "group": "fengyun-1c-debris",
        "lat": 36.79105553262904,
        "lon": 49.77584749887642,
        "alt_km": 864.3990172270924,
        "timestamp": "2025-12-03T06:58:43.519685+00:00",
        "meta_object_name": "FENGYUN 1C DEB",
        "meta_object_id": "1999-025BPZ",
        "meta_epoch": "2025-11-28T23:11:37.489632",
        "meta_mean_motion": 14.13809948,
        "meta_eccentricity": 0.00293651,
        "meta_inclination": 98.7348,
        "meta_ra_of_asc_node": 52.1537,
        "meta_arg_of_pericenter": 217.1862,
        "meta_mean_anomaly": 142.7277,
        "meta_ephemeris_type": 0,
        "meta_classification_type": "U",
        "meta_norad_cat_id": 31321,
        "meta_element_set_no": 999,
        "meta_rev_at_epoch": 57189,
        "meta_bstar": 0.00017233355,
        "meta_mean_motion_dot": 2.84e-06,
        "meta_mean_motion_ddot": 0,
        "tle_line1": "1 31321U 99025BPZ 25332.96640613  .00000284  00000+0  17233-3 0  9997",
        "tle_line2": "2 31321  98.7348  52.1537 0029365 217.1862 142.7277 14.13809948571893"
      },
      "geometry": {
        "type": "Point",
        "coordinates": [
          49.77584749887642,
          36.79105553262904
        ]
      }
    }
  ]
}